,RegionID,SizeRank,Zip,State,City,Metro,CountyName,2019-01-31,2019-02-28,2019-03-31,2019-04-30,2019-05-31,2019-06-30,2019-07-31,2019-08-31,2019-09-30,2019-10-31,2019-11-30,2019-12-31,AvgHomeValue
1,84654,1,60657,IL,Chicago,Chicago-Naperville-Elgin,Cook County,500823.0,497702.0,495472.0,495042.0,495231.0,495084.0,495689.0,495147.0,494290.0,493336.0,492329.0,491487.0,495136.0
4,84616,4,60614,IL,Chicago,Chicago-Naperville-Elgin,Cook County,656398.0,652874.0,650747.0,651430.0,651464.0,650606.0,650524.0,649878.0,648659.0,647684.0,646281.0,644917.0,650121.83
9,84640,9,60640,IL,Chicago,Chicago-Naperville-Elgin,Cook County,311913.0,309543.0,308026.0,308948.0,309995.0,310564.0,310999.0,311324.0,311253.0,311226.0,310688.0,310619.0,310424.83
17,84646,18,60647,IL,Chicago,Chicago-Naperville-Elgin,Cook County,445419.0,442885.0,440848.0,440372.0,440812.0,440935.0,441744.0,441969.0,441852.0,441601.0,441602.0,441464.0,441791.92
26,84620,28,60618,IL,Chicago,Chicago-Naperville-Elgin,Cook County,454906.0,452060.0,449913.0,449701.0,449934.0,449771.0,450086.0,449380.0,448361.0,447270.0,446141.0,445294.0,449401.42
49,84615,51,60613,IL,Chicago,Chicago-Naperville-Elgin,Cook County,355490.0,353514.0,352256.0,352685.0,353385.0,353797.0,354327.0,354339.0,353830.0,353161.0,352070.0,351329.0,353348.58
55,84627,57,60625,IL,Chicago,Chicago-Naperville-Elgin,Cook County,370849.0,368558.0,367474.0,366898.0,366975.0,366973.0,367409.0,367675.0,367557.0,367505.0,367147.0,367491.0,367709.25
61,84630,63,60629,IL,Chicago,Chicago-Naperville-Elgin,Cook County,180760.0,181065.0,181632.0,183104.0,183907.0,184623.0,185084.0,185424.0,185222.0,185152.0,185117.0,185088.0,183848.17
68,84612,70,60610,IL,Chicago,Chicago-Naperville-Elgin,Cook County,445051.0,441888.0,439276.0,438580.0,438970.0,439710.0,440553.0,440070.0,439002.0,438375.0,437437.0,436769.0,439640.08
90,84621,92,60619,IL,Chicago,Chicago-Naperville-Elgin,Cook County,130572.0,131882.0,132508.0,134331.0,134443.0,134892.0,134145.0,133366.0,132114.0,131098.0,130766.0,130265.0,132531.83
100,84613,102,60611,IL,Chicago,Chicago-Naperville-Elgin,Cook County,476524.0,474212.0,472580.0,471877.0,471941.0,471869.0,472107.0,471549.0,470598.0,470029.0,469140.0,468479.0,471742.08
128,84619,131,60617,IL,Chicago,Chicago-Naperville-Elgin,Cook County,107414.0,107864.0,108496.0,108956.0,108987.0,109228.0,110121.0,110695.0,110966.0,110869.0,111331.0,111774.0,109725.08
183,84622,187,60620,IL,Chicago,Chicago-Naperville-Elgin,Cook County,131682.0,132142.0,133609.0,134295.0,133716.0,132982.0,132766.0,132855.0,132716.0,132993.0,132957.0,133228.0,132995.08
202,84635,206,60634,IL,Chicago,Chicago-Naperville-Elgin,Cook County,279426.0,279649.0,280431.0,280614.0,280269.0,279723.0,279685.0,279488.0,278575.0,277470.0,276731.0,276247.0,279025.67
225,84285,229,60016,IL,Des Plaines,Chicago-Naperville-Elgin,Cook County,267278.0,266562.0,266535.0,266956.0,267618.0,267741.0,268049.0,268013.0,267887.0,267717.0,267577.0,267331.0,267438.67
255,84629,259,60628,IL,Chicago,Chicago-Naperville-Elgin,Cook County,104159.0,105395.0,106090.0,106351.0,105277.0,105152.0,104614.0,104313.0,103502.0,103634.0,103726.0,103739.0,104662.67
280,84647,284,60649,IL,Chicago,Chicago-Naperville-Elgin,Cook County,116978.0,116795.0,117243.0,117862.0,118171.0,117966.0,119018.0,120545.0,121674.0,121751.0,121566.0,121021.0,119215.83
284,84628,288,60626,IL,Chicago,Chicago-Naperville-Elgin,Cook County,229644.0,228634.0,227694.0,228034.0,228075.0,228018.0,228148.0,228333.0,228494.0,228637.0,228874.0,228934.0,228459.92
314,84624,318,60622,IL,Chicago,Chicago-Naperville-Elgin,Cook County,523084.0,518033.0,514412.0,513774.0,514399.0,514829.0,515993.0,516053.0,515730.0,515694.0,515369.0,515358.0,516060.67
316,84618,320,60616,IL,Chicago,Chicago-Naperville-Elgin,Cook County,359328.0,358651.0,358731.0,360926.0,362353.0,363379.0,364178.0,365080.0,365898.0,366925.0,367024.0,366249.0,363226.83
358,84617,362,60615,IL,Chicago,Chicago-Naperville-Elgin,Cook County,279076.0,278159.0,277752.0,278234.0,278234.0,278699.0,279325.0,279827.0,279630.0,279265.0,278796.0,278538.0,278794.58
376,84641,380,60641,IL,Chicago,Chicago-Naperville-Elgin,Cook County,306401.0,305649.0,305380.0,304460.0,303139.0,301939.0,301267.0,300403.0,299130.0,298388.0,297615.0,296925.0,301724.67
399,84656,403,60660,IL,Chicago,Chicago-Naperville-Elgin,Cook County,269886.0,268344.0,267355.0,267485.0,267952.0,267992.0,268390.0,268598.0,268484.0,268275.0,267974.0,267828.0,268213.58
402,84504,406,60453,IL,Oak Lawn,Chicago-Naperville-Elgin,Cook County,209807.0,210177.0,210857.0,211594.0,212370.0,213008.0,213881.0,214286.0,214591.0,214638.0,214680.0,214409.0,212858.17
455,84317,459,60056,IL,Mount Prospect,Chicago-Naperville-Elgin,Cook County,320873.0,319649.0,319006.0,319034.0,318750.0,318468.0,318476.0,318461.0,317817.0,316920.0,315915.0,314986.0,318196.25
464,84637,468,60637,IL,Chicago,Chicago-Naperville-Elgin,Cook County,158051.0,158885.0,158804.0,159772.0,159022.0,158521.0,157881.0,157592.0,157821.0,158113.0,158682.0,158881.0,158502.08
500,84610,504,60608,IL,Chicago,Chicago-Naperville-Elgin,Cook County,287496.0,287484.0,287379.0,287964.0,287455.0,285865.0,284371.0,283134.0,282491.0,281973.0,281931.0,281308.0,284904.25
636,84273,641,60004,IL,Arlington Heights,Chicago-Naperville-Elgin,Cook County,360833.0,359349.0,357954.0,357559.0,356664.0,355959.0,355136.0,354378.0,353277.0,352065.0,350788.0,349529.0,355290.92
728,84638,734,60638,IL,Chicago,Chicago-Naperville-Elgin,Cook County,227211.0,226731.0,226334.0,227271.0,228520.0,229883.0,231129.0,232182.0,232632.0,232859.0,232947.0,233340.0,230086.58
734,84460,740,60402,IL,Berwyn,Chicago-Naperville-Elgin,Cook County,219127.0,219488.0,219790.0,220118.0,219987.0,220158.0,220645.0,220852.0,220483.0,219641.0,218952.0,218632.0,219822.75
769,84639,775,60639,IL,Chicago,Chicago-Naperville-Elgin,Cook County,249599.0,248867.0,248415.0,248180.0,248131.0,247518.0,247086.0,246193.0,245722.0,245424.0,245294.0,244951.0,247115.0
853,84631,860,60630,IL,Chicago,Chicago-Naperville-Elgin,Cook County,318287.0,316895.0,316500.0,315884.0,315308.0,314881.0,314857.0,314566.0,313800.0,312972.0,311811.0,311454.0,314767.92
895,84642,902,60643,IL,Chicago,Chicago-Naperville-Elgin,Cook County,170336.0,171808.0,173113.0,174378.0,173965.0,173747.0,173538.0,173658.0,173329.0,172888.0,172392.0,171904.0,172921.33
1009,84466,1017,60411,IL,Chicago Heights,Chicago-Naperville-Elgin,Cook County,90558.0,90934.0,91674.0,92324.0,92820.0,93413.0,94450.0,95474.0,96205.0,96953.0,97480.0,98213.0,94208.17
1082,84693,1091,60804,IL,Cicero,Chicago-Naperville-Elgin,Cook County,186776.0,187365.0,187937.0,188721.0,188881.0,189279.0,189746.0,189906.0,189820.0,189577.0,189356.0,189310.0,188889.5
1110,84625,1119,60623,IL,Chicago,Chicago-Naperville-Elgin,Cook County,138123.0,138190.0,138966.0,140042.0,139792.0,139422.0,138863.0,139595.0,139784.0,139763.0,139899.0,140231.0,139389.17
1134,84633,1143,60632,IL,Chicago,Chicago-Naperville-Elgin,Cook County,184451.0,183696.0,182997.0,183313.0,184633.0,185756.0,186591.0,187699.0,188531.0,190073.0,191305.0,192753.0,186816.5
1226,84444,1237,60201,IL,Evanston,Chicago-Naperville-Elgin,Cook County,518076.0,516089.0,513881.0,512503.0,511486.0,510929.0,511392.0,511178.0,510218.0,508450.0,506430.0,504452.0,511257.0
1227,84607,1238,60605,IL,Chicago,Chicago-Naperville-Elgin,Cook County,389209.0,386956.0,384965.0,385360.0,386727.0,388105.0,389422.0,390000.0,390132.0,390493.0,390378.0,389895.0,388470.17
1464,84279,1478,60010,IL,Barrington,Chicago-Naperville-Elgin,Cook County,497523.0,496097.0,494709.0,494307.0,493120.0,491500.0,489466.0,487734.0,486025.0,484391.0,483102.0,482547.0,490043.42
1510,84611,1525,60609,IL,Chicago,Chicago-Naperville-Elgin,Cook County,180121.0,180785.0,180599.0,181001.0,180316.0,179968.0,179609.0,179801.0,180188.0,180468.0,180813.0,180668.0,180361.42
1527,84320,1542,60062,IL,Northbrook,Chicago-Naperville-Elgin,Cook County,540824.0,538378.0,536640.0,536469.0,536166.0,535768.0,535545.0,535337.0,534597.0,533877.0,532841.0,531406.0,535654.0
1586,84513,1601,60462,IL,Orland Park,Chicago-Naperville-Elgin,Cook County,288068.0,288084.0,288508.0,288939.0,289156.0,288829.0,288819.0,288810.0,288735.0,288696.0,288465.0,287987.0,288591.33
1610,84644,1625,60645,IL,Chicago,Chicago-Naperville-Elgin,Cook County,307934.0,306849.0,306027.0,306120.0,306211.0,306396.0,306396.0,306699.0,306794.0,307634.0,308052.0,308680.0,306982.67
1612,84651,1627,60654,IL,Chicago,Chicago-Naperville-Elgin,Cook County,424132.0,421870.0,420088.0,419748.0,420040.0,420924.0,421646.0,421621.0,420937.0,420354.0,419060.0,418282.0,420725.17
1622,84323,1637,60067,IL,Palatine,Chicago-Naperville-Elgin,Cook County,361954.0,360673.0,360078.0,359940.0,359459.0,358514.0,357976.0,357505.0,356930.0,356250.0,355419.0,354447.0,358262.08
1666,84648,1681,60651,IL,Chicago,Chicago-Naperville-Elgin,Cook County,189656.0,190174.0,191631.0,193099.0,194185.0,195030.0,196948.0,197942.0,198479.0,197892.0,197412.0,197613.0,195005.08
1671,84438,1686,60193,IL,Schaumburg,Chicago-Naperville-Elgin,Cook County,286015.0,285582.0,285395.0,285197.0,284641.0,284030.0,284010.0,284040.0,283737.0,283176.0,282627.0,282360.0,284234.17
1751,84528,1766,60477,IL,Tinley Park,Chicago-Naperville-Elgin,Cook County,218413.0,218146.0,218080.0,218241.0,218712.0,219047.0,219598.0,219840.0,219912.0,220016.0,219948.0,219734.0,219140.58
1766,84689,1781,60707,IL,Elmwood Park,Chicago-Naperville-Elgin,Cook County,270183.0,269743.0,269946.0,270716.0,270495.0,269748.0,268669.0,267553.0,265923.0,264699.0,264035.0,263910.0,267968.33
1786,84292,1801,60025,IL,Glenview,Chicago-Naperville-Elgin,Cook County,484235.0,483053.0,482168.0,481710.0,480214.0,478648.0,478362.0,478259.0,477375.0,475685.0,473417.0,471043.0,478680.75
1881,84650,1896,60653,IL,Chicago,Chicago-Naperville-Elgin,Cook County,288926.0,288862.0,289426.0,290501.0,291167.0,291325.0,292041.0,293924.0,294748.0,295963.0,295534.0,295441.0,292321.5
1946,84345,1959,60090,IL,Wheeling,Chicago-Naperville-Elgin,Cook County,230177.0,229455.0,229080.0,228893.0,228808.0,228432.0,228314.0,228064.0,227819.0,227361.0,226759.0,226122.0,228273.67
2042,84643,2056,60644,IL,Chicago,Chicago-Naperville-Elgin,Cook County,153498.0,154058.0,155112.0,156567.0,156403.0,156608.0,156024.0,155650.0,154881.0,154636.0,154667.0,155184.0,155274.0
2085,84464,2101,60409,IL,Calumet City,Chicago-Naperville-Elgin,Cook County,94802.0,95050.0,95676.0,96301.0,95977.0,95749.0,96072.0,96633.0,96977.0,97418.0,97745.0,98444.0,96403.67
2117,84453,2133,60302,IL,Oak Park,Chicago-Naperville-Elgin,Cook County,452164.0,451020.0,449092.0,447727.0,445526.0,443360.0,442223.0,441589.0,440346.0,438811.0,436514.0,434104.0,443539.67
2120,84324,2136,60068,IL,Park Ridge,Chicago-Naperville-Elgin,Cook County,424825.0,423740.0,422399.0,421941.0,421335.0,421383.0,421509.0,421635.0,420936.0,420045.0,418308.0,416593.0,421220.75
2190,84330,2206,60074,IL,Palatine,Chicago-Naperville-Elgin,Cook County,280068.0,279327.0,278865.0,278982.0,278979.0,278696.0,278472.0,278184.0,277773.0,277388.0,276961.0,276347.0,278336.83
2246,84609,2261,60607,IL,Chicago,Chicago-Naperville-Elgin,Cook County,425488.0,423118.0,422636.0,423348.0,424954.0,425626.0,426574.0,426794.0,426554.0,426464.0,425754.0,425097.0,425200.58
2489,84445,2509,60202,IL,Evanston,Chicago-Naperville-Elgin,Cook County,336554.0,336209.0,336000.0,336859.0,336418.0,335981.0,335674.0,335548.0,335244.0,334750.0,333812.0,332845.0,335491.17
2565,84614,2586,60612,IL,Chicago,Chicago-Naperville-Elgin,Cook County,297022.0,296608.0,296146.0,296544.0,296729.0,296806.0,296786.0,296757.0,296712.0,297190.0,297556.0,297855.0,296892.58
2670,84276,2693,60007,IL,Elk Grove Village,Chicago-Naperville-Elgin,Cook County,285794.0,285239.0,284776.0,284756.0,284202.0,283284.0,282749.0,282130.0,281546.0,280985.0,280747.0,280404.0,283051.0
2816,84361,2840,60107,IL,Streamwood,Chicago-Naperville-Elgin,Cook County,210409.0,210737.0,211040.0,211253.0,211416.0,211552.0,212071.0,212491.0,212716.0,212876.0,212832.0,212663.0,211838.0
2872,84655,2896,60659,IL,Chicago,Chicago-Naperville-Elgin,Cook County,330412.0,329195.0,328750.0,328794.0,328797.0,329102.0,329558.0,330221.0,331000.0,331989.0,332415.0,333175.0,330284.0
2879,84274,2903,60005,IL,Arlington Heights,Chicago-Naperville-Elgin,Cook County,352263.0,351675.0,351248.0,351558.0,350984.0,350528.0,350244.0,350226.0,349699.0,348972.0,348077.0,347175.0,350220.75
3110,84649,3138,60652,IL,Chicago,Chicago-Naperville-Elgin,Cook County,185079.0,184108.0,183434.0,183807.0,185009.0,185751.0,186715.0,187398.0,187800.0,188026.0,187796.0,187512.0,186036.25
3192,84558,3223,60525,IL,La Grange,Chicago-Naperville-Elgin,Cook County,397755.0,398203.0,399216.0,400074.0,400398.0,400437.0,400823.0,401008.0,400311.0,399462.0,398654.0,398130.0,399539.25
3248,399603,3280,60169,IL,Hoffman Estates,Chicago-Naperville-Elgin,Cook County,255152.0,254717.0,254238.0,254216.0,253846.0,253428.0,253460.0,253158.0,252847.0,251994.0,251148.0,250336.0,253211.67
3423,84691,3456,60714,IL,Niles,Chicago-Naperville-Elgin,Cook County,303232.0,302451.0,302227.0,302274.0,303056.0,303713.0,304753.0,305145.0,305013.0,304469.0,303233.0,302260.0,303485.5
3445,84632,3479,60631,IL,Chicago,Chicago-Naperville-Elgin,Cook County,358781.0,356523.0,354916.0,352952.0,352837.0,352412.0,352351.0,351626.0,350643.0,350102.0,349243.0,348762.0,352595.67
3467,84653,3501,60656,IL,Chicago,Chicago-Naperville-Elgin,Cook County,308938.0,308003.0,307166.0,306313.0,305884.0,305292.0,305159.0,304997.0,304707.0,304780.0,304649.0,304803.0,305890.92
3477,84626,3511,60624,IL,Chicago,Chicago-Naperville-Elgin,Cook County,134164.0,133550.0,134165.0,134777.0,135577.0,136461.0,137732.0,138544.0,138961.0,138812.0,139413.0,140442.0,136883.17
3567,84489,3603,60438,IL,Lansing,Chicago-Naperville-Elgin,Cook County,119770.0,120183.0,120677.0,121242.0,121552.0,121827.0,122280.0,122648.0,122771.0,122849.0,122694.0,122922.0,121784.58
3597,84332,3633,60076,IL,Skokie,Chicago-Naperville-Elgin,Cook County,325713.0,324427.0,323392.0,322921.0,322587.0,322419.0,322302.0,322020.0,321545.0,320999.0,320005.0,318879.0,322267.42
3984,84623,4023,60621,IL,Chicago,Chicago-Naperville-Elgin,Cook County,51284.0,50758.0,50338.0,50334.0,49896.0,49898.0,49831.0,50138.0,50231.0,50432.0,50380.0,50560.0,50340.0
4169,84603,4211,60601,IL,Chicago,Chicago-Naperville-Elgin,Cook County,462244.0,460986.0,459587.0,458844.0,458083.0,457204.0,456578.0,455682.0,455264.0,454895.0,453813.0,452347.0,457127.25
4284,84333,4327,60077,IL,Skokie,Chicago-Naperville-Elgin,Cook County,304521.0,303201.0,302266.0,301755.0,301454.0,301098.0,301430.0,301354.0,300918.0,300096.0,299051.0,298255.0,301283.25
4342,399713,4387,60642,IL,Chicago,Chicago-Naperville-Elgin,Cook County,499392.0,495183.0,492391.0,492171.0,492656.0,492740.0,493467.0,492597.0,491479.0,490885.0,489543.0,488573.0,492589.75
4386,84652,4432,60655,IL,Chicago,Chicago-Naperville-Elgin,Cook County,248348.0,247272.0,246625.0,247139.0,247892.0,248187.0,248338.0,248090.0,247733.0,247428.0,247008.0,246693.0,247562.75
4387,84287,4432,60018,IL,Des Plaines,Chicago-Naperville-Elgin,Cook County,271300.0,270901.0,270808.0,271563.0,272462.0,272819.0,272972.0,272583.0,272142.0,271745.0,271610.0,271276.0,271848.42
4434,84645,4481,60646,IL,Chicago,Chicago-Naperville-Elgin,Cook County,407902.0,405344.0,403168.0,401288.0,401624.0,401727.0,402472.0,402132.0,401618.0,400949.0,399938.0,398807.0,402247.42
4448,84636,4495,60636,IL,Chicago,Chicago-Naperville-Elgin,Cook County,54084.0,54219.0,53693.0,53271.0,52421.0,52095.0,51797.0,51985.0,51990.0,51972.0,52254.0,52313.0,52674.5
4549,84503,4596,60452,IL,Oak Forest,Chicago-Naperville-Elgin,Cook County,201980.0,201785.0,201897.0,202114.0,202389.0,202388.0,202987.0,203193.0,203373.0,203387.0,203241.0,202930.0,202638.67
4591,84346,4639,60091,IL,Wilmette,Chicago-Naperville-Elgin,Cook County,713609.0,712505.0,711632.0,711950.0,710770.0,710094.0,710797.0,711765.0,711337.0,709923.0,707943.0,705679.0,710667.0
4614,84695,4662,60827,IL,Riverdale,Chicago-Naperville-Elgin,Cook County,62210.0,61957.0,61902.0,62202.0,63013.0,63915.0,64522.0,65112.0,65529.0,65845.0,65977.0,66377.0,64046.75
5040,84518,5092,60467,IL,Orland Park,Chicago-Naperville-Elgin,Cook County,352100.0,351258.0,351350.0,352302.0,353154.0,353039.0,353404.0,353605.0,353800.0,353777.0,353479.0,353124.0,352866.0
5179,84517,5230,60466,IL,Park Forest,Chicago-Naperville-Elgin,Cook County,76616.0,76665.0,76792.0,77541.0,77648.0,77708.0,77566.0,77811.0,78138.0,78423.0,78562.0,78639.0,77675.75
5253,84688,5306,60706,IL,Norridge,Chicago-Naperville-Elgin,Cook County,295987.0,295572.0,295378.0,296415.0,296706.0,297426.0,297230.0,296568.0,295179.0,294057.0,293276.0,292698.0,295541.0
5309,84510,5363,60459,IL,Burbank,Chicago-Naperville-Elgin,Cook County,201266.0,202527.0,203823.0,204256.0,204902.0,205582.0,206980.0,207605.0,208062.0,208135.0,208099.0,207704.0,205745.08
5429,84315,5483,60053,IL,Morton Grove,Chicago-Naperville-Elgin,Cook County,320767.0,319292.0,318311.0,317587.0,317079.0,316658.0,316903.0,316903.0,316282.0,315545.0,314528.0,313853.0,316975.67
5502,84692,5558,60803,IL,Alsip,Chicago-Naperville-Elgin,Cook County,182266.0,183341.0,185009.0,185469.0,185785.0,185489.0,186001.0,186349.0,186644.0,186520.0,186002.0,185487.0,185363.5
5517,84461,5574,60406,IL,Blue Island,Chicago-Naperville-Elgin,Cook County,125508.0,126799.0,127895.0,129035.0,129333.0,129441.0,129998.0,130505.0,131522.0,131834.0,131972.0,131833.0,129639.58
5555,399607,5612,60487,IL,Tinley Park,Chicago-Naperville-Elgin,Cook County,269712.0,269611.0,269507.0,269813.0,270214.0,270574.0,270945.0,271163.0,271121.0,270964.0,270702.0,270278.0,270383.67
5691,84277,5748,60008,IL,Rolling Meadows,Chicago-Naperville-Elgin,Cook County,246793.0,246376.0,246548.0,246843.0,247055.0,246944.0,246978.0,246690.0,246107.0,245615.0,245320.0,245142.0,246367.58
5693,84490,5751,60439,IL,Lemont,Chicago-Naperville-Elgin,Cook County,382580.0,381868.0,382080.0,382731.0,382947.0,383565.0,384622.0,385601.0,386166.0,386515.0,386889.0,387395.0,384413.25
5731,84494,5789,60443,IL,Matteson,Chicago-Naperville-Elgin,Cook County,172737.0,172920.0,172808.0,173129.0,173309.0,173770.0,174629.0,175133.0,175358.0,175770.0,176197.0,176744.0,174375.33
5803,84478,5862,60426,IL,Harvey,Chicago-Naperville-Elgin,Cook County,41997.0,42473.0,42547.0,42950.0,43170.0,43698.0,44402.0,44727.0,44878.0,44765.0,45239.0,45468.0,43859.5
5869,84657,5928,60661,IL,Chicago,Chicago-Naperville-Elgin,Cook County,389133.0,387154.0,385709.0,385931.0,387427.0,389044.0,389872.0,389598.0,388622.0,388271.0,387364.0,386596.0,387893.42
5989,84481,6049,60430,IL,Homewood,Chicago-Naperville-Elgin,Cook County,163788.0,163946.0,164540.0,165238.0,165683.0,165800.0,166142.0,166527.0,166854.0,167084.0,167401.0,167823.0,165902.17
6038,84439,6101,60194,IL,Schaumburg,Chicago-Naperville-Elgin,Cook County,270559.0,270335.0,270717.0,271217.0,271477.0,271181.0,271252.0,271330.0,271373.0,271116.0,270919.0,270800.0,271023.0
6186,84471,6249,60419,IL,Dolton,Chicago-Naperville-Elgin,Cook County,97426.0,98263.0,99134.0,100251.0,101205.0,102343.0,103986.0,105433.0,106280.0,106714.0,107130.0,107758.0,102993.58
6211,84524,6275,60473,IL,South Holland,Chicago-Naperville-Elgin,Cook County,149514.0,149942.0,150711.0,151718.0,152090.0,151744.0,151741.0,152086.0,152474.0,152582.0,152438.0,152668.0,151642.33
6326,84381,6390,60130,IL,Forest Park,Chicago-Naperville-Elgin,Cook County,254009.0,254931.0,256641.0,257084.0,256614.0,256007.0,256055.0,256287.0,255664.0,254475.0,254104.0,254224.0,255507.92
6568,84403,6636,60153,IL,Maywood,Chicago-Naperville-Elgin,Cook County,161355.0,162111.0,163180.0,164373.0,165156.0,165947.0,166777.0,167289.0,167320.0,167316.0,167450.0,167843.0,165509.75
6652,84409,6720,60160,IL,Melrose Park,Chicago-Naperville-Elgin,Cook County,210054.0,211058.0,212110.0,212926.0,213351.0,213826.0,214377.0,214731.0,215197.0,215589.0,216450.0,216975.0,213887.0
6656,84348,6725,60093,IL,Winnetka,Chicago-Naperville-Elgin,Cook County,1118131.0,1113981.0,1111208.0,1110719.0,1111210.0,1110983.0,1113555.0,1114496.0,1112949.0,1110742.0,1107726.0,1104882.0,1111715.17
6664,84547,6733,60513,IL,Brookfield,Chicago-Naperville-Elgin,Cook County,244802.0,244298.0,243765.0,244224.0,244817.0,245275.0,246043.0,246469.0,246840.0,246747.0,246561.0,246321.0,245513.5
6686,84404,6755,60154,IL,Westchester,Chicago-Naperville-Elgin,Cook County,248833.0,248431.0,248956.0,249456.0,250003.0,250065.0,250574.0,250670.0,250695.0,250471.0,250428.0,250253.0,249902.92
6703,84516,6772,60465,IL,Palos Hills,Chicago-Naperville-Elgin,Cook County,238212.0,238293.0,239214.0,240231.0,241014.0,241570.0,242211.0,242492.0,242376.0,242242.0,242120.0,241949.0,240993.67
6762,84694,6830,60805,IL,Evergreen Park,Chicago-Naperville-Elgin,Cook County,185839.0,186705.0,187625.0,188352.0,189050.0,189864.0,190864.0,191689.0,192304.0,192726.0,193167.0,193364.0,190129.08
6840,84413,6910,60164,IL,Northlake,Chicago-Naperville-Elgin,Cook County,201515.0,201664.0,201744.0,202016.0,202315.0,202778.0,203709.0,204097.0,204456.0,204777.0,205151.0,205154.0,203281.33
6919,84455,6990,60304,IL,Oak Park,Chicago-Naperville-Elgin,Cook County,392745.0,390965.0,390031.0,390164.0,389903.0,388654.0,386705.0,385139.0,383351.0,381809.0,379761.0,377978.0,386433.75
7273,84575,7348,60546,IL,Riverside,Chicago-Naperville-Elgin,Cook County,311043.0,310404.0,309879.0,309925.0,309471.0,308924.0,309104.0,309488.0,309530.0,308898.0,308132.0,307019.0,309318.08
7288,84326,7363,60070,IL,Prospect Heights,Chicago-Naperville-Elgin,Cook County,333746.0,332405.0,331187.0,331201.0,331094.0,331130.0,330720.0,330674.0,330074.0,329728.0,329166.0,328713.0,330819.83
7444,84382,7522,60131,IL,Franklin Park,Chicago-Naperville-Elgin,Cook County,206237.0,206570.0,207026.0,208003.0,208482.0,208512.0,208741.0,208804.0,208752.0,208866.0,209140.0,209175.0,208192.33
7475,84419,7554,60173,IL,Schaumburg,Chicago-Naperville-Elgin,Cook County,331699.0,331021.0,330618.0,331026.0,331181.0,331261.0,331724.0,332148.0,331980.0,332232.0,332166.0,332228.0,331607.0
7515,84358,7593,60104,IL,Bellwood,Chicago-Naperville-Elgin,Cook County,163460.0,164032.0,165420.0,166536.0,166664.0,167154.0,168107.0,169398.0,169764.0,169951.0,170428.0,171517.0,167702.58
7652,84506,7732,60455,IL,Bridgeview,Chicago-Naperville-Elgin,Cook County,202609.0,202664.0,203565.0,205528.0,206433.0,206905.0,207369.0,207828.0,207899.0,207940.0,207944.0,208409.0,206257.75
7662,84529,7742,60478,IL,Country Club Hills,Chicago-Naperville-Elgin,Cook County,132837.0,133618.0,134873.0,136009.0,136414.0,136607.0,136449.0,136321.0,135549.0,134879.0,134370.0,134410.0,135194.67
7953,84468,8040,60415,IL,Chicago Ridge,Chicago-Naperville-Elgin,Cook County,181583.0,181775.0,182027.0,182495.0,183007.0,183277.0,184069.0,184640.0,184998.0,185070.0,185020.0,184986.0,183578.92
8010,84514,8098,60463,IL,Palos Heights,Chicago-Naperville-Elgin,Cook County,280051.0,279824.0,280905.0,282263.0,283605.0,283751.0,284013.0,284069.0,284127.0,284452.0,284898.0,285330.0,283107.33
8014,84480,8102,60429,IL,Hazel Crest,Chicago-Naperville-Elgin,Cook County,109770.0,111001.0,112514.0,114255.0,115358.0,116266.0,116869.0,117229.0,116874.0,116533.0,116431.0,117164.0,115022.0
8194,84293,8283,60026,IL,Glenview,Chicago-Naperville-Elgin,Cook County,609654.0,606990.0,606189.0,605278.0,604675.0,603387.0,603251.0,602897.0,601897.0,600674.0,598434.0,595821.0,603262.25
8252,84559,8342,60526,IL,La Grange Park,Chicago-Naperville-Elgin,Cook County,339624.0,339262.0,339632.0,339507.0,339840.0,340043.0,340736.0,340847.0,340708.0,340970.0,340705.0,340349.0,340185.25
8254,84509,8344,60458,IL,Justice,Chicago-Naperville-Elgin,Cook County,210000.0,209572.0,209778.0,211136.0,211660.0,211717.0,211733.0,212088.0,212212.0,212217.0,211688.0,211413.0,211267.83
8278,84437,8369,60192,IL,Hoffman Estates,Chicago-Naperville-Elgin,Cook County,345312.0,344391.0,343963.0,344438.0,344450.0,343966.0,343709.0,343116.0,342329.0,341482.0,340754.0,340053.0,343163.58
8305,84496,8397,60445,IL,Crestwood,Chicago-Naperville-Elgin,Cook County,156928.0,157524.0,158098.0,158300.0,158437.0,158568.0,159348.0,159663.0,159858.0,159872.0,159814.0,159875.0,158857.08
8448,84508,8542,60457,IL,Hickory Hills,Chicago-Naperville-Elgin,Cook County,240106.0,239332.0,239273.0,239716.0,240210.0,240356.0,240800.0,241228.0,241299.0,240854.0,240234.0,239440.0,240237.33
8549,84522,8642,60471,IL,Richton Park,Chicago-Naperville-Elgin,Cook County,131237.0,131674.0,132607.0,134081.0,134952.0,135454.0,135821.0,136187.0,136499.0,136471.0,136463.0,136508.0,134829.5
8874,84533,8973,60482,IL,Worth,Chicago-Naperville-Elgin,Cook County,191610.0,191609.0,192028.0,192804.0,193608.0,193715.0,194303.0,194790.0,195375.0,195489.0,195664.0,195710.0,193892.08
8982,84634,9084,60633,IL,Chicago,Chicago-Naperville-Elgin,Cook County,121352.0,121463.0,122832.0,124027.0,124750.0,124353.0,124470.0,124728.0,125509.0,126217.0,126788.0,127416.0,124492.08
9132,84690,9235,60712,IL,Lincolnwood,Chicago-Naperville-Elgin,Cook County,388467.0,387464.0,386686.0,386625.0,386507.0,386548.0,387202.0,387272.0,386938.0,386048.0,384724.0,383475.0,386496.33
9169,84422,9273,60176,IL,Schiller Park,Chicago-Naperville-Elgin,Cook County,221166.0,221353.0,222238.0,223361.0,224108.0,223945.0,223854.0,223617.0,223642.0,223753.0,223621.0,223231.0,223157.42
9174,84586,9277,60558,IL,Western Springs,Chicago-Naperville-Elgin,Cook County,562962.0,562893.0,563858.0,565311.0,566282.0,567185.0,567357.0,567243.0,567032.0,567129.0,566666.0,566082.0,565833.33
9449,84417,9558,60171,IL,River Grove,Chicago-Naperville-Elgin,Cook County,225249.0,225030.0,224768.0,224978.0,225181.0,225278.0,225527.0,224916.0,223748.0,222641.0,222068.0,221397.0,224231.75
9513,84456,9622,60305,IL,River Forest,Chicago-Naperville-Elgin,Cook County,621495.0,621594.0,622956.0,621343.0,620243.0,618074.0,618481.0,618297.0,617960.0,617567.0,616004.0,614540.0,619046.17
9627,84564,9737,60534,IL,Lyons,Chicago-Naperville-Elgin,Cook County,189120.0,189285.0,189655.0,190786.0,191538.0,191729.0,192151.0,192332.0,192634.0,192930.0,192993.0,193436.0,191549.08
9636,84526,9747,60475,IL,Steger,Chicago-Naperville-Elgin,Cook County,83273.0,84217.0,84917.0,85811.0,86795.0,87881.0,89213.0,90059.0,90671.0,90715.0,90548.0,90486.0,87882.17
9854,84479,9968,60428,IL,Markham,Chicago-Naperville-Elgin,Cook County,73419.0,74285.0,75349.0,76338.0,77516.0,79358.0,81161.0,82032.0,82393.0,82397.0,82572.0,83018.0,79153.17
9875,84515,9990,60464,IL,Palos Park,Chicago-Naperville-Elgin,Cook County,374462.0,374683.0,374842.0,375573.0,377044.0,377661.0,378581.0,378958.0,379129.0,379570.0,379782.0,379566.0,377487.58
10013,84474,10132,60422,IL,Flossmoor,Chicago-Naperville-Elgin,Cook County,224147.0,223983.0,224012.0,225246.0,225713.0,225066.0,224712.0,224877.0,225621.0,226068.0,226368.0,226354.0,225180.58
10582,84477,10709,60425,IL,Glenwood,Chicago-Naperville-Elgin,Cook County,138485.0,139437.0,140346.0,141058.0,141138.0,141176.0,141517.0,142201.0,142699.0,143015.0,142741.0,142867.0,141390.0
10697,84537,10827,60501,IL,Summit,Chicago-Naperville-Elgin,Cook County,185071.0,185771.0,187200.0,189345.0,190122.0,190197.0,190241.0,190744.0,191385.0,191858.0,192497.0,192939.0,189780.83
10721,84405,10849,60155,IL,Broadview,Chicago-Naperville-Elgin,Cook County,181912.0,182388.0,182877.0,183293.0,183986.0,184615.0,185978.0,186608.0,187135.0,187219.0,187263.0,187197.0,185039.25
11092,84411,11223,60162,IL,Hillside,Chicago-Naperville-Elgin,Cook County,193382.0,193550.0,194134.0,195134.0,195652.0,196530.0,197870.0,199045.0,199484.0,199595.0,199682.0,199926.0,196998.67
11309,84291,11451,60022,IL,Glencoe,Chicago-Naperville-Elgin,Cook County,1055862.0,1055753.0,1057679.0,1058913.0,1059109.0,1059185.0,1061553.0,1064304.0,1063666.0,1063366.0,1063136.0,1063271.0,1060483.08
11760,84440,11912,60195,IL,Schaumburg,Chicago-Naperville-Elgin,Cook County,172300.0,171885.0,172029.0,172171.0,172087.0,171631.0,171563.0,171361.0,170980.0,170653.0,170312.0,170072.0,171420.33
11838,84608,11990,60606,IL,Chicago,Chicago-Naperville-Elgin,Cook County,393424.0,390288.0,387711.0,387070.0,387312.0,388363.0,389156.0,388286.0,386815.0,385524.0,385194.0,384784.0,387827.25
12662,84531,12837,60480,IL,Willow Springs,Chicago-Naperville-Elgin,Cook County,288571.0,287670.0,286971.0,286844.0,286919.0,286906.0,286864.0,286468.0,285704.0,285243.0,284934.0,284924.0,286501.5
13358,84512,13553,60461,IL,Olympia Fields,Chicago-Naperville-Elgin,Cook County,223950.0,224427.0,225579.0,226914.0,226628.0,225304.0,224454.0,224044.0,223501.0,222916.0,222195.0,222238.0,224345.83
13812,84507,14024,60456,IL,Hometown,Chicago-Naperville-Elgin,Cook County,139236.0,139918.0,139898.0,140108.0,140350.0,140865.0,141633.0,141845.0,141701.0,141109.0,140668.0,139913.0,140603.67
13862,84520,14080,60469,IL,Posen,Chicago-Naperville-Elgin,Cook County,114136.0,115120.0,115418.0,116157.0,115822.0,116575.0,117228.0,117392.0,116636.0,115898.0,115762.0,115961.0,116008.75
13869,84412,14080,60163,IL,Berkeley,Chicago-Naperville-Elgin,Cook County,193251.0,193787.0,194571.0,195334.0,195724.0,196526.0,197717.0,199130.0,200121.0,200679.0,200788.0,201062.0,197390.83
14332,84452,14565,60301,IL,Oak Park,Chicago-Naperville-Elgin,Cook County,213656.0,214374.0,215557.0,216389.0,216201.0,215372.0,215213.0,215000.0,214509.0,213529.0,212492.0,211390.0,214473.5
14478,84446,14717,60203,IL,Evanston,Chicago-Naperville-Elgin,Cook County,411933.0,410170.0,408361.0,407760.0,406812.0,406499.0,407096.0,407156.0,406130.0,404912.0,404039.0,403388.0,407021.33
16362,84414,16707,60165,IL,Stone Park,Chicago-Naperville-Elgin,Cook County,167145.0,167231.0,168785.0,169921.0,170543.0,171272.0,173123.0,175008.0,175432.0,175845.0,176002.0,177160.0,172288.92
17373,84527,17791,60476,IL,Thornton,Chicago-Naperville-Elgin,Cook County,112713.0,113995.0,115628.0,116701.0,117426.0,117227.0,117504.0,117856.0,118384.0,118532.0,118554.0,118282.0,116900.17
18288,84604,18836,60602,IL,Chicago,Chicago-Naperville-Elgin,Cook County,578516.0,576124.0,572384.0,570782.0,569036.0,568290.0,566351.0,563842.0,561445.0,560608.0,558140.0,554855.0,566697.75
18356,84306,18905,60043,IL,Kenilworth,Chicago-Naperville-Elgin,Cook County,1389483.0,1380013.0,1374107.0,1371759.0,1370899.0,1367546.0,1366454.0,1363611.0,1358468.0,1353206.0,1347537.0,1344280.0,1365613.58
18992,84605,19621,60603,IL,Chicago,Chicago-Naperville-Elgin,Cook County,650723.0,646520.0,643094.0,640866.0,640291.0,638530.0,637274.0,636387.0,636696.0,638381.0,638529.0,637470.0,640396.75
20389,84606,21208,60604,IL,Chicago,Chicago-Naperville-Elgin,Cook County,521981.0,514400.0,508653.0,508692.0,509352.0,509039.0,509142.0,508869.0,509586.0,509491.0,508130.0,505839.0,510264.5
21825,84392,22871,60141,IL,Broadview,Chicago-Naperville-Elgin,Cook County,52414.0,52390.0,51910.0,52293.0,53023.0,53357.0,53527.0,53417.0,53623.0,53471.0,52974.0,51766.0,52847.08
26193,84294,28012,60029,IL,Golf,Chicago-Naperville-Elgin,Cook County,773891.0,771842.0,771078.0,772594.0,774405.0,776670.0,779389.0,779052.0,777798.0,777038.0,777645.0,775573.0,775581.25
